NORAD_CAT_ID,OBJECT_NAME,OBJECT_TYPE,EPOCH,MEAN_MOTION,ECCENTRICITY,INCLINATION,RA_OF_ASC_NODE,ARG_OF_PERICENTER,MEAN_ANOMALY,BSTAR,MEAN_MOTION_DOT,MEAN_MOTION_DDOT,TLE_LINE0,TLE_LINE1,TLE_LINE2,SEMIMAJOR_AXIS,PERIOD,APOGEE,PERIGEE,DECAYED
55767.0,STARLINK-5606,PAYLOAD,2023-09-02 12:08:01,14.98344746,0.0002833,70.0008,22.2264,274.4464,85.6371,-0.00026797,-3.29e-05,0.0,0 STARLINK-5606,1 55767U 23028AC  23245.50556745 -.00003290  00000-0 -26797-3 0  9998,2 55767  70.0008  22.2264 0002833 274.4464  85.6371 14.98344746 28844,6950.147,96.106,573.981,570.043,0.0
55767.0,STARLINK-5606,PAYLOAD,2023-09-02 16:56:23,14.98344029,0.0002946,70.0028,21.7226,257.5607,102.5223,0.00010983,1.218e-05,0.0,0 STARLINK-5606,1 55767U 23028AC  23245.70582988  .00001218  00000-0  10983-3 0  9994,2 55767  70.0028  21.7226 0002946 257.5607 102.5223 14.98344029 28865,6950.15,96.106,574.062,569.967,0.0
55767.0,STARLINK-5606,PAYLOAD,2023-09-02 20:08:40,14.98326927,0.0003258,70.0021,21.3844,267.8728,92.2058,0.00011668,1.299e-05,0.0,0 STARLINK-5606,1 55767U 23028AC  23245.83935687  .00001299  00000-0  11668-3 0  9996,2 55767  70.0021  21.3844 0003258 267.8728  92.2058 14.98326927 28896,6950.202,96.107,574.332,569.803,0.0
55767.0,STARLINK-5606,PAYLOAD,2023-09-02 21:44:48,14.98332962,0.0002832,70.0008,21.2164,279.2781,80.8058,0.00010395,1.148e-05,0.0,0 STARLINK-5606,1 55767U 23028AC  23245.90611675  .00001148  00000-0  10395-3 0  9991,2 55767  70.0008  21.2164 0002832 279.2781  80.8058 14.98332962 28897,6950.184,96.107,574.017,570.08,0.0
55767.0,STARLINK-5606,PAYLOAD,2023-09-03 02:33:12,14.98331455,0.0003201,70.0009,20.7122,270.7574,89.3218,-1.7973e-05,-3.07e-06,0.0,0 STARLINK-5606,1 55767U 23028AC  23246.10639925 -.00000307  00000-0 -17973-4 0  9990,2 55767  70.0009  20.7122 0003201 270.7574  89.3218 14.98331455 28936,6950.188,96.107,574.278,569.829,0.0
55767.0,STARLINK-5606,PAYLOAD,2023-09-03 15:22:17,14.98331276,0.0003132,70.0005,19.3652,271.2104,88.8696,-2.3047e-05,-3.68e-06,0.0,0 STARLINK-5606,1 55767U 23028AC  23246.64047960 -.00000368  00000-0 -23047-4 0  9997,2 55767  70.0005  19.3652 0003132 271.2104  88.8696 14.98331276 29006,6950.189,96.107,574.231,569.877,0.0
55767.0,STARLINK-5606,PAYLOAD,2023-09-04 02:35:14,14.98321117,0.0002742,70.0015,18.1875,271.2696,88.8149,-4.4455e-05,-6.23e-06,0.0,0 STARLINK-5606,1 55767U 23028AC  23247.10780684 -.00000623  00000-0 -44455-4 0  9996,2 55767  70.0015  18.1875 0002742 271.2696  88.8149 14.98321117 29076,6950.22,96.108,573.991,570.18,0.0
55767.0,STARLINK-5606,PAYLOAD,2023-09-04 12:12:02,14.98322663,0.0003107,70.001,17.1774,269.9628,90.1175,-3.2469e-05,-4.8e-06,0.0,0 STARLINK-5606,1 55767U 23028AC  23247.50836577 -.00000480  00000-0 -32469-4 0  9996,2 55767  70.0010  17.1774 0003107 269.9628  90.1175 14.98322663 29143,6950.216,96.107,574.24,569.921,0.0
55767.0,STARLINK-5606,PAYLOAD,2023-09-05 02:37:15,14.9833157,0.0003183,70.0014,15.6623,270.0191,90.0603,-6.0857e-05,-8.19e-06,0.0,0 STARLINK-5606,1 55767U 23028AC  23248.10920176 -.00000819  00000-0 -60857-4 0  9990,2 55767  70.0014  15.6623 0003183 270.0191  90.0603 14.98331570 29226,6950.188,96.107,574.265,569.841,0.0
55767.0,STARLINK-5606,PAYLOAD,2023-09-06 07:27:39,14.98329727,0.0003168,70.0017,12.6327,269.1186,90.961,0.00010447,1.154e-05,0.0,0 STARLINK-5606,1 55767U 23028AC  23249.31087787  .00001154  00000-0  10447-3 0  9996,2 55767  70.0017  12.6327 0003168 269.1186  90.9610 14.98329727 29401,6950.194,96.107,574.261,569.857,0.0
55767.0,STARLINK-5606,PAYLOAD,2023-09-07 09:05:49,14.98323382,0.0002973,70.0025,9.94,272.7089,87.373,0.00010438,1.152e-05,0.0,0 STARLINK-5606,1 55767U 23028AC  23250.37904211  .00001152  00000-0  10438-3 0  9992,2 55767  70.0025   9.9400 0002973 272.7089  87.3730 14.98323382 29567,6950.213,96.107,574.145,570.012,0.0
55767.0,STARLINK-5606,PAYLOAD,2023-09-07 20:18:45,14.98332702,0.0002936,70.0026,8.7619,272.8565,87.2258,-1.3787e-05,-2.57e-06,0.0,0 STARLINK-5606,1 55767U 23028AC  23250.84635779 -.00000257  00000-0 -13787-4 0  9992,2 55767  70.0026   8.7619 0002936 272.8565  87.2258 14.98332702 29645,6950.185,96.107,574.09,570.009,0.0
55767.0,STARLINK-5606,PAYLOAD,2023-09-08 10:43:58,14.98328685,0.000276,70.0011,7.2461,266.2904,93.794,-1.2834e-05,-2.46e-06,0.0,0 STARLINK-5606,1 55767U 23028AC  23251.44719934 -.00000246  00000-0 -12834-4 0  9995,2 55767  70.0011   7.2461 0002760 266.2904  93.7940 14.98328685 29721,6950.197,96.107,573.98,570.144,0.0
55767.0,STARLINK-5606,PAYLOAD,2023-09-08 13:56:14,14.98340201,0.0002957,70.0019,6.9099,268.7612,91.3208,-0.00025143,-3.092e-05,0.0,0 STARLINK-5606,1 55767U 23028AC  23251.58071855 -.00003092  00000-0 -25143-3 0  9991,2 55767  70.0019   6.9099 0002957 268.7612  91.3208 14.98340201 29755,6950.161,96.106,574.082,569.971,0.0
55767.0,STARLINK-5606,PAYLOAD,2023-09-08 17:08:30,14.98338593,0.0003008,70.0021,6.5734,266.4942,93.5873,-0.00016029,-2.005e-05,0.0,0 STARLINK-5606,1 55767U 23028AC  23251.71423637 -.00002005  00000-0 -16029-3 0  9991,2 55767  70.0021   6.5734 0003008 266.4942  93.5873 14.98338593 29774,6950.166,96.106,574.122,569.941,0.0
55767.0,STARLINK-5606,PAYLOAD,2023-09-09 10:45:59,14.98323059,0.0003094,70.0022,4.7224,268.2776,91.8028,-1.5953e-05,-2.83e-06,0.0,0 STARLINK-5606,1 55767U 23028AC  23252.44860336 -.00000283  00000-0 -15953-4 0  9995,2 55767  70.0022   4.7224 0003094 268.2776  91.8028 14.98323059 29874,6950.214,96.107,574.23,569.929,0.0
55767.0,STARLINK-5606,PAYLOAD,2023-09-09 13:58:15,14.98327291,0.0003089,70.0016,4.3845,266.8199,93.2607,-6.218e-05,-8.35e-06,0.0,0 STARLINK-5606,1 55767U 23028AC  23252.58212214 -.00000835  00000-0 -62180-4 0  9993,2 55767  70.0016   4.3845 0003089 266.8199  93.2607 14.98327291 29904,6950.201,96.107,574.213,569.919,0.0
55767.0,STARLINK-5606,PAYLOAD,2023-09-09 17:10:32,14.9831239,0.0003239,70.0018,4.0486,268.025,92.0538,-0.00022049,-2.722e-05,0.0,0 STARLINK-5606,1 55767U 23028AC  23252.71565638 -.00002722  00000-0 -22049-3 0  9995,2 55767  70.0018   4.0486 0003239 268.0250  92.0538 14.98312390 29918,6950.247,96.108,574.364,569.861,0.0
55767.0,STARLINK-5606,PAYLOAD,2023-09-10 10:48:01,14.98314036,0.0003401,70.0015,2.197,268.4647,91.6122,-7.8789e-05,-1.033e-05,0.0,0 STARLINK-5606,1 55767U 23028AC  23253.45001847 -.00001033  00000-0 -78789-4 0  9991,2 55767  70.0015   2.1970 0003401 268.4647  91.6122 14.98314036 30024,6950.242,96.108,574.471,569.743,0.0
55767.0,STARLINK-5606,PAYLOAD,2023-09-10 14:00:21,14.98262969,0.0003068,70.0015,1.8609,253.4073,106.6749,-0.00072848,-8.759e-05,0.0,0 STARLINK-5606,1 55767U 23028AC  23253.58358507 -.00008759  00000-0 -72848-3 0  9994,2 55767  70.0015   1.8609 0003068 253.4073 106.6749 14.98262969 30057,6950.4,96.111,574.398,570.133,0.0
55767.0,STARLINK-5606,PAYLOAD,2023-09-10 17:12:33,14.9832341,0.0003352,70.0017,1.5246,273.0618,87.0157,5.5477e-06,-2.7e-07,0.0,0 STARLINK-5606,1 55767U 23028AC  23253.71705301 -.00000027  00000-0  55477-5 0  9997,2 55767  70.0017   1.5246 0003352 273.0618  87.0157 14.98323410 30067,6950.213,96.107,574.408,569.749,0.0
55767.0,STARLINK-5606,PAYLOAD,2023-09-11 10:50:01,14.98331317,0.0002977,70.0024,359.6729,266.1877,93.8942,0.00014374,1.623e-05,0.0,0 STARLINK-5606,1 55767U 23028AC  23254.45140621  .00001623  00000-0  14374-3 0  9998,2 55767  70.0024 359.6729 0002977 266.1877  93.8942 14.98331317 30174,6950.189,96.107,574.123,569.985,0.0
55767.0,STARLINK-5606,PAYLOAD,2023-09-11 14:02:17,14.98331357,0.0002712,70.0035,359.3369,266.7819,93.303,0.00040424,4.734e-05,0.0,0 STARLINK-5606,1 55767U 23028AC  23254.58491973  .00004734  00000-0  40424-3 0  9992,2 55767  70.0035 359.3369 0002712 266.7819  93.3030 14.98331357 30203,6950.189,96.107,573.939,570.169,0.0
55767.0,STARLINK-5606,PAYLOAD,2023-09-11 17:14:33,14.98337934,0.0003496,70.0023,359.0,262.9187,97.1574,0.00019664,2.255e-05,0.0,0 STARLINK-5606,1 55767U 23028AC  23254.71843886  .00002255  00000-0  19664-3 0  9999,2 55767  70.0023 359.0000 0003496 262.9187  97.1574 14.98337934 30218,6950.168,96.106,574.463,569.604,0.0
55767.0,STARLINK-5606,PAYLOAD,2023-09-11 20:26:48,14.98344133,0.0003355,70.0021,358.6629,271.5391,88.5384,0.00025883,2.998e-05,0.0,0 STARLINK-5606,1 55767U 23028AC  23254.85195383  .00002998  00000-0  25883-3 0  9990,2 55767  70.0021 358.6629 0003355 271.5391  88.5384 14.98344133 30239,6950.149,96.106,574.346,569.682,0.0
55767.0,STARLINK-5606,PAYLOAD,2023-09-12 10:52:01,14.98339491,0.0003034,70.0026,357.149,269.2118,90.8693,0.00020491,2.353e-05,0.0,0 STARLINK-5606,1 55767U 23028AC  23255.45279779  .00002353  00000-0  20491-3 0  9994,2 55767  70.0026 357.1490 0003034 269.2118  90.8693 14.98339491 30329,6950.164,96.106,574.137,569.92,0.0
55767.0,STARLINK-5606,PAYLOAD,2023-09-12 17:16:33,14.98347233,0.0002965,70.0023,356.4748,273.4306,86.6513,0.00028579,3.32e-05,0.0,0 STARLINK-5606,1 55767U 23028AC  23255.71982894  .00003320  00000-0  28579-3 0  9992,2 55767  70.0023 356.4748 0002965 273.4306  86.6513 14.98347233 30363,6950.14,96.106,574.065,569.944,0.0
55767.0,STARLINK-5606,PAYLOAD,2023-09-12 23:41:06,14.98336805,0.0002869,70.0046,355.8009,285.6724,74.4118,0.0002314,2.67e-05,0.0,0 STARLINK-5606,1 55767U 23028AC  23255.98687546  .00002670  00000-0  23140-3 0  9993,2 55767  70.0046 355.8009 0002869 285.6724  74.4118 14.98336805 30407,6950.172,96.107,574.031,570.043,0.0
55767.0,STARLINK-5606,PAYLOAD,2023-09-13 09:17:53,14.98366016,0.0002712,70.0037,354.7928,265.8671,94.2178,-0.00035918,-4.38e-05,0.0,0 STARLINK-5606,1 55767U 23028AC  23256.38743023 -.00004380  00000-0 -35918-3 0  9999,2 55767  70.0037 354.7928 0002712 265.8671  94.2178 14.98366016 30462,6950.082,96.105,573.831,570.062,0.0
55767.0,STARLINK-5606,PAYLOAD,2023-09-13 12:30:10,14.98344861,0.0003016,70.0026,354.4563,264.6411,95.4404,-2.4266e-05,-3.83e-06,0.0,0 STARLINK-5606,1 55767U 23028AC  23256.52095057 -.00000383  00000-0 -24266-4 0  9996,2 55767  70.0026 354.4563 0003016 264.6411  95.4404 14.98344861 30491,6950.147,96.106,574.108,569.916,0.0
